IRIDIUM 166             
1 43570U 18061B   23253.69803934  .00000275  00000+0  90980-4 0  9995
2 43570  86.3951 119.0879 0002106  79.1720 280.9712 14.34218084268564
IRIDIUM 158             
1 43571U 18061C   23253.73609663  .00000316  00000+0  10563-3 0  9998
2 43571  86.3949 119.0808 0001756  79.1097 281.0296 14.34216174268546
IRIDIUM 165             
1 43572U 18061D   23253.69170093  .00000311  00000+0  10408-3 0  9997
2 43572  86.3953 119.1267 0001707  79.6269 280.5119 14.34215164268551
IRIDIUM 155             
1 43573U 18061E   23254.07225976  .00000325  00000+0  10916-3 0  9991
2 43573  86.3947 118.8862 0002341  83.9691 276.1772 14.34217802268584
IRIDIUM 154             
1 43574U 18061F   23254.12299176  .00000292  00000+0  97081-4 0  9993
2 43574  86.3953 118.9494 0001958  92.6158 267.5262 14.34218118268637
IRIDIUM 163             
1 43575U 18061G   23253.68535711  .00000320  00000+0  10716-3 0  9993
2 43575  86.3950 119.0791 0001997  86.8075 273.3350 14.34217785268545
IRIDIUM 156             
1 43576U 18061H   23253.72975415  .00000323  00000+0  10839-3 0  9997
2 43576  86.3948 119.0664 0002121  78.2442 281.8992 14.34217910268530
IRIDIUM 164             
1 43577U 18061J   23254.05956250  .00000323  00000+0  10835-3 0  9997
2 43577  86.3951 118.9533 0001896  81.1873 278.9537 14.34220565268630
